satname,norad_id,inclination_deg,eccentricity,mean_motion_rev_per_day,perigee_km,apogee_km,l1,l2
STARLINK-1316,45415,53.1552,0.0002402,15.40806479,442.0892295718095,445.36645344166845,1 45415U 20019BH  26179.78969568  .00054448  00000+0  13093-2 0  9996,2 45415  53.1552 329.1329 0002402 157.4924 202.6187 15.40806479347061
STARLINK-1286,45417,53.0457,0.0004142,15.6655843,365.9658886065945,371.55501845710114,1 45417U 20019BK  26180.51048737  .00055255  00000+0  52045-3 0  9995,2 45417  53.0457 307.9629 0004142 326.2880  33.7871 15.66558430347650
STARLINK-1308,45419,53.046,0.0005437,15.67820513,361.4728492512313,368.805487756862,1 45419U 20019BM  26179.68715147  .00048360  00000+0  43371-3 0  9990,2 45419  53.0460 331.1845 0005437  99.5808 260.5822 15.67820513347003
STARLINK-1329,45531,53.039,0.0002939,15.76297229,338.9675599998127,342.9170348108264,1 45531U 20025A   26180.46145725  .00068136  00000+0  42484-3 0  9996,2 45531  53.0390 249.8182 0002939 335.0204  25.0672 15.76297229342993
STARLINK-1338,45532,53.0433,0.0002349,15.73345202,347.76394277187956,350.92451345284644,1 45532U 20025B   26180.48319997  .00056319  00000+0  40042-3 0  9991,2 45532  53.0433 257.0568 0002349  51.2996 308.8232 15.73345202342896
STARLINK-1350,45535,53.0699,0.0001465,15.39088693,447.8027002228737,449.8029935980194,1 45535U 20025E   26180.40463529  .00039487  00000+0  10094-2 0  9997,2 45535  53.0699 227.4017 0001465  42.1727 317.9389 15.39088693343347
STARLINK-1362,45538,53.157,0.0003859,15.39352705,445.3880244873344,450.65645418825534,1 45538U 20025H   26180.50081646  .00032536  00000+0  82698-3 0  9995,2 45538  53.1570 298.3722 0003859 287.4202  72.6381 15.39352705342344
STARLINK-1368,45540,53.1571,0.0002401,15.39481887,446.0014974579799,449.2792357494236,1 45540U 20025K   26180.51239909  .00042822  00000+0  10793-2 0  9991,2 45540  53.1571 298.6676 0002401 277.7638  82.3094 15.39481887342338
STARLINK-1371,45542,53.0433,0.0001918,15.70557361,356.01116047849155,358.59487526934754,1 45542U 20025M   26180.51190994  .00051020  00000+0  40871-3 0  9994,2 45542  53.0433 267.2510 0001918  45.9787 314.1388 15.70557361342751
STARLINK-1372,45543,53.1577,0.0001476,15.39852904,445.5365834955337,447.5512292991025,1 45543U 20025N   26180.52938641  .00040201  00000+0  10020-2 0  9996,2 45543  53.1577 298.0150 0001476 278.9296  81.1542 15.39852904341440
STARLINK-1373,45544,53.0445,0.0003132,15.72277954,350.28025207670635,354.4962530949251,1 45544U 20025P   26180.49267348  .00048786  00000+0  36385-3 0  9991,2 45544  53.0445 262.1505 0003132  33.4657 326.6558 15.72277954342826
STARLINK-1327,45555,53.0385,0.0002117,15.73959249,346.1705537261523,349.01822839712804,1 45555U 20025AA  26180.54725088  .00055949  00000+0  38751-3 0  9997,2 45555  53.0385 239.1747 0002117  56.5575 303.5646 15.73959249343143
STARLINK-1356,45564,53.0418,0.0003828,15.67041252,364.7923401885673,369.95670380980937,1 45564U 20025AK  26180.43360808  .00042043  00000+0  39026-3 0  9997,2 45564  53.0418 253.5378 0003828  10.7200 349.3896 15.67041252342937
STARLINK-1357,45565,53.041,0.0001424,15.71975411,352.29324813085987,354.2103476605016,1 45565U 20025AL  26180.33910527  .00050474  00000+0  38110-3 0  9996,2 45565  53.0410 210.0055 0001424 164.7805 195.3255 15.71975411343545
STARLINK-1361,45567,53.0403,0.0002148,15.70559174,355.8510630288374,358.7446058337091,1 45567U 20025AN  26180.48609075  .00050626  00000+0  40557-3 0  9994,2 45567  53.0403 251.4954 0002148  57.0015 303.1208 15.70559174342973
STARLINK-1376,45570,53.1561,0.0001114,15.40389571,444.198589556916,445.7187752749578,1 45570U 20025AR  26180.50047163  .00044556  00000+0  10895-2 0  9991,2 45570  53.1561 274.4888 0001114 288.9585  71.1299 15.40389571342671
STARLINK-1320,45572,53.0359,0.0007557,15.94343247,285.10576643992226,295.1842078352829,1 45572U 20025AT  26180.58335647  .00200635  26640-4  52898-3 0  9993,2 45572  53.0359 144.6647 0007557  52.8916 112.7474 15.94343247  5921
STARLINK-1321,45573,53.0403,0.0001871,15.71050756,354.6328118528354,357.152685784843,1 45573U 20025AU  26180.42453911  .00050543  00000+0  39671-3 0  9994,2 45573  53.0403 235.6110 0001871  61.9030 298.2176 15.71050756342882
STARLINK-1331,45578,53.0442,0.0001583,15.70794098,355.56014824587146,357.69237429439,1 45578U 20025AZ  26180.51429781  .00048858  00000+0  38786-3 0  9999,2 45578  53.0442 242.1117 0001583  58.6379 301.4792 15.70794098343110
STARLINK-1333,45580,53.1562,0.0002961,15.37279682,452.1345396580864,456.1806245095959,1 45580U 20025BB  26180.52624897  .00037691  00000+0  10224-2 0  9997,2 45580  53.1562 276.3516 0002961 320.1426  39.9360 15.37279682342652
STARLINK-1335,45581,53.1537,0.0002609,15.39057617,447.1135718056803,450.6759169699026,1 45581U 20025BC  26180.53189507  .00072072  00000+0  18281-2 0  9996,2 45581  53.1537 272.7781 0002609 290.0895  69.9829 15.39057617342694
STARLINK-1337,45582,53.0409,0.000181,15.7777758,335.5234599239993,337.9542449825876,1 45582U 20025BD  26180.50284361  .00067320  00000+0  39328-3 0  9994,2 45582  53.0409 230.0597 0001810  80.9744 279.1481 15.77777580343269
STARLINK-1347,45586,53.0343,0.000198,15.70873916,355.06468708244756,357.73156299196216,1 45586U 20025BH  26180.32578843  .00044149  00000+0  34995-3 0  9998,2 45586  53.0343 202.4106 0001980  23.0238 337.0867 15.70873916343639
STARLINK-1364,45589,53.0394,0.0003754,15.71744849,351.382864125364,356.4372850689724,1 45589U 20025BL  26180.44996426  .00052057  00000+0  39657-3 0  9992,2 45589  53.0394 238.3841 0003754   9.6399 350.4690 15.71744849343143
STARLINK-1365,45590,53.0445,0.0001275,15.67215761,366.0137833900062,367.73376113693394,1 45590U 20025BM  26180.54791758  .00044704  00000+0  41169-3 0  9997,2 45590  53.0445 273.2366 0001275  42.2102 317.9011 15.67215761342687
STARLINK-1443,45660,53.1337,0.0001725,15.34329941,461.73139738015743,464.09155910515074,1 45660U 20035D   26180.49640649  .00026167  00000+0  78460-3 0  9999,2 45660  53.1337 265.5814 0001725  28.4018 331.7078 15.34329941335870
STARLINK-1446,45663,53.0194,0.0002089,15.48921018,418.46114195126574,421.30135397526556,1 45663U 20035G   26180.28367280  .00033041  00000+0  60773-3 0  9993,2 45663  53.0194 187.0308 0002089 338.2907  21.8011 15.48921018336932
STARLINK-1448,45665,53.04,0.0002195,15.75130421,342.7845127533101,345.73564507095307,1 45665U 20035J   26180.53014931  .00064094  00000+0  42102-3 0  9993,2 45665  53.0400 225.2231 0002195  66.9992 293.1257 15.75130421336410
STARLINK-1451,45668,53.0514,6.94e-05,15.15262795,519.702108951923,520.6595954698114,1 45668U 20035M   26180.53641836  .00024456  00000+0  12965-2 0  9997,2 45668  53.0514 279.0156 0000694 334.4923  25.6035 15.15262795335674
STARLINK-1452,45669,53.0209,0.0007592,15.62798661,374.4467519932159,384.7076652475853,1 45669U 20035N   26180.49296236  .00084435  00000+0  91567-3 0  9992,2 45669  53.0209 202.1373 0007592  20.8603 339.2719 15.62798661336749
STARLINK-1453,45670,53.0359,0.0001866,15.75617307,341.6209953115731,344.1292770407945,1 45670U 20035P   26180.49220078  .00100979  00000+0  64424-3 0  9999,2 45670  53.0359 185.6231 0001866  93.5893 266.5339 15.75617307336865
STARLINK-1454,45671,53.0407,0.000153,15.7363168,347.4985363587148,349.55689576182976,1 45671U 20035Q   26180.36679022  .00064421  00000+0  45141-3 0  9999,2 45671  53.0407 227.5204 0001530  58.5401 301.5766 15.73631680336367
STARLINK-1456,45673,53.0391,0.0001603,15.7034032,356.84382869833826,359.003409732858,1 45673U 20035S   26180.36064126  .00048546  00000+0  39277-3 0  9997,2 45673  53.0391 222.4305 0001603  47.9266 312.1887 15.70340320336456
STARLINK-1458,45675,53.0438,0.0003998,15.61107025,381.7544735266065,387.16184461579996,1 45675U 20035U   26180.44014868  .00107799  00000+0  12441-2 0  9995,2 45675  53.0438 238.0215 0003998  16.6491 343.4652 15.61107025336208
STARLINK-1460,45676,53.1561,0.0003744,15.37182857,451.886365023086,457.0026020379537,1 45676U 20035V   26180.50432627  .00056809  00000+0  15365-2 0  9993,2 45676  53.1561 263.6693 0003744 323.7329  36.3420 15.37182857335863
STARLINK-1392,45677,53.1522,0.0004255,15.40558115,441.5580062733061,447.3640371898,1 45677U 20035W   26180.53945331  .00043315  00000+0  10535-2 0  9990,2 45677  53.1522 261.6074 0004255 329.0019  31.0735 15.40558115335932
STARLINK-1394,45679,53.0371,0.0001386,15.69059308,360.6552992300258,362.5235513951229,1 45679U 20035Y   26180.37249647  .00044483  00000+0  38006-3 0  9992,2 45679  53.0371 212.7518 0001386  64.2674 295.8485 15.69059308336587
STARLINK-1402,45685,53.038,0.0002222,15.6146098,381.9337267886567,384.93856989578035,1 45685U 20035AE  26180.54991294  .00145805  00000+0  16504-2 0  9998,2 45685  53.0380 203.9228 0002222 344.4579  15.6365 15.61460980336737
STARLINK-1404,45686,53.1548,0.0004096,15.46620991,423.8320432223991,429.40649955992376,1 45686U 20035AF  26180.44431834  .00034913  00000+0  69473-3 0  9998,2 45686  53.1548 242.7280 0004096 313.1550  46.9115 15.46620991336190
STARLINK-1413,45689,53.155,0.0003995,15.36998679,452.2604687967905,457.7201375120121,1 45689U 20035AJ  26180.58335647  .00062027  00000+0  16855-2 0  9993,2 45689  53.1550 247.9541 0003995 336.6929 241.3004 15.36998679  5876
STARLINK-1417,45693,53.0513,0.0002428,15.1784426,510.6841049036211,514.0301288467763,1 45693U 20035AN  26180.46630133  .00025929  00000+0  12762-2 0  9996,2 45693  53.0513 265.5982 0002428 232.1844 127.8930 15.17844260335844
STARLINK-1420,45695,53.0425,0.0001748,15.72877693,349.50104549206117,351.85343895114147,1 45695U 20035AQ  26180.34187406  .00058259  00000+0  42232-3 0  9993,2 45695  53.0425 195.5817 0001748  91.0530 269.0688 15.72877693336820
STARLINK-1422,45696,53.1548,0.0001527,15.38787296,448.65165420316225,450.73687387119844,1 45696U 20035AR  26180.47441993  .00046884  00000+0  12073-2 0  9992,2 45696  53.1548 248.3299 0001527  73.3368 286.7804 15.38787296336115
